NORAD_CAT_ID,OBJECT_NAME,OBJECT_TYPE,EPOCH,MEAN_MOTION,ECCENTRICITY,INCLINATION,RA_OF_ASC_NODE,ARG_OF_PERICENTER,MEAN_ANOMALY,BSTAR,MEAN_MOTION_DOT,MEAN_MOTION_DDOT,TLE_LINE0,TLE_LINE1,TLE_LINE2,SEMIMAJOR_AXIS,PERIOD,APOGEE,PERIGEE,DECAYED
49750.0,STARLINK-3236,PAYLOAD,2022-02-01 14:00:01,15.36606947,0.0002414,53.217,31.643,282.4005,244.111,-0.018828,-0.00636606,0.0,0 STARLINK-3236,1 49750U 21115AC  22032.58335648 -.00636606  00000-0 -18828-1 0  9993,2 49750  53.2170  31.6430 0002414 282.4005 244.1110 15.36606947  3614,6834.2890000000025,93.713,457.80300000000005,454.504,0.0
49750.0,STARLINK-3236,PAYLOAD,2022-02-01 22:00:00,15.36163354,6.19e-05,53.2172,30.0853,323.3618,247.7711,-0.020125,-0.00668145,0.0,0 STARLINK-3236,1 49750U 21115AC  22032.91667824 -.00668145  00000-0 -20125-1 0  9990,2 49750  53.2172  30.0853 0000619 323.3618 247.7711 15.36163354  3636,6835.604,93.74,457.892,457.046,0.0
49750.0,STARLINK-3236,PAYLOAD,2022-02-02 06:00:00,15.35691124,0.0001306,53.2173,28.5303,35.767,219.5026,-0.020075,-0.00657286,0.0,0 STARLINK-3236,1 49750U 21115AC  22033.25001157 -.00657286  00000-0 -20075-1 0  9997,2 49750  53.2173  28.5303 0001306  35.7670 219.5026 15.35691124 10707,6837.005,93.769,459.763,457.978,0.0
49750.0,STARLINK-3236,PAYLOAD,2022-02-02 14:00:01,15.35228831,0.0001214,53.2172,26.974,81.6347,217.2091,-0.02059,-0.00663699,0.0,0 STARLINK-3236,1 49750U 21115AC  22033.58334491 -.00663699  00000-0 -20590-1 0  9990,2 49750  53.2172  26.9740 0001214  81.6347 217.2091 15.35228831  3645,6838.378000000002,93.797,461.073,459.413,0.0
49750.0,STARLINK-3236,PAYLOAD,2022-02-02 22:00:00,15.34758739,0.0001212,53.2174,25.41800000000001,72.5278,269.3331,-0.020695,-0.00657553,0.0,0 STARLINK-3236,1 49750U 21115AC  22033.91667824 -.00657553  00000-0 -20695-1 0  9994,2 49750  53.2174  25.4180 0001212  72.5278 269.3331 15.34758739  3659,6839.774,93.826,462.468,460.81,0.0
49750.0,STARLINK-3236,PAYLOAD,2022-02-03 06:00:00,15.34248521,0.0001306,53.2176,23.8641,75.9671,308.3708,-0.019007,-0.00598158,0.0,0 STARLINK-3236,1 49750U 21115AC  22034.25001157 -.00598158  00000-0 -19007-1 0  9993,2 49750  53.2176  23.8641 0001306  75.9671 308.3708 15.34248521 10869,6841.291,93.857,464.049,462.262,0.0
49750.0,STARLINK-3236,PAYLOAD,2022-02-03 14:00:01,15.33827588,0.0001164,53.2173,22.3134,72.218,353.9895,-0.021423,-0.00660509,0.0,0 STARLINK-3236,1 49750U 21115AC  22034.58334491 -.00660509  00000-0 -21423-1 0  9994,2 49750  53.2173  22.3134 0001164  72.2180 353.9895 15.33827588  3640,6842.542,93.883,465.204,463.611,0.0
49750.0,STARLINK-3236,PAYLOAD,2022-02-03 22:00:01,15.3336093,0.0001286,53.2174,20.7605,67.437,40.1684,-0.021736,-0.00660316,0.0,0 STARLINK-3236,1 49750U 21115AC  22034.91668981 -.00660316  00000-0 -21736-1 0  9998,2 49750  53.2174  20.7605 0001286  67.4370  40.1684 15.33360930  3642,6843.93,93.911,466.675,464.915,0.0
49750.0,STARLINK-3236,PAYLOAD,2022-02-04 14:00:01,15.32428083,0.0001371,53.2173,17.6623,71.4054,117.1838,-0.02241,-0.00660942,0.0,0 STARLINK-3236,1 49750U 21115AC  22035.58335648 -.00660942  00000-0 -22410-1 0  9998,2 49750  53.2173  17.6623 0001371  71.4054 117.1838 15.32428083  3644,6846.706999999999,93.969,469.511,467.634,0.0
49750.0,STARLINK-3236,PAYLOAD,2022-02-04 22:00:00,15.31961289,0.0001414,53.2173,16.1131,68.9306,159.2466,-0.022704,-0.00659915,0.0,0 STARLINK-3236,1 49750U 21115AC  22035.91667824 -.00659915  00000-0 -22704-1 0  9993,2 49750  53.2173  16.1131 0001414  68.9306 159.2466 15.31961289  3633,6848.098000000001,93.997,470.932,468.995,0.0
49750.0,STARLINK-3236,PAYLOAD,2022-02-05 06:00:00,15.31411676,0.0001456,53.2178,14.5661,73.5741,193.7443,-0.019309,-0.00552272,0.0,0 STARLINK-3236,1 49750U 21115AC  22036.25001157 -.00552272  00000-0 -19309-1 0  9997,2 49750  53.2178  14.5661 0001456  73.5741 193.7443 15.31411676 11175,6849.736999999999,94.031,472.599,470.604,0.0
49750.0,STARLINK-3236,PAYLOAD,2022-02-05 14:00:01,15.30992322,0.0001307,53.2176,13.0196,61.0475,244.7683,-0.021525,-0.00610337,0.0,0 STARLINK-3236,1 49750U 21115AC  22036.58334491 -.00610337  00000-0 -21525-1 0  9993,2 49750  53.2176  13.0196 0001307  61.0475 244.7683 15.30992322  3615,6850.986999999999,94.057,473.74800000000016,471.957,0.0
49750.0,STARLINK-3236,PAYLOAD,2022-02-05 22:00:01,15.30559694,0.000129,53.2176,11.4756,66.9552,276.8764,-0.023595,-0.00656579,0.0,0 STARLINK-3236,1 49750U 21115AC  22036.91668981 -.00656579  00000-0 -23595-1 0  9991,2 49750  53.2176  11.4756 0001290  66.9552 276.8764 15.30559694 11278,6852.278,94.083,475.027,473.259,0.0
49750.0,STARLINK-3236,PAYLOAD,2022-02-06 14:00:01,15.29571475,0.0001406999999999,53.2179,8.3885,48.4712,9.6486,-0.02152,-0.00585464,0.0,0 STARLINK-3236,1 49750U 21115AC  22037.58335648 -.00585464  00000-0 -21520-1 0  9996,2 49750  53.2179   8.3885 0001407  48.4712   9.6486 15.29571475  3613,6855.229,94.144,478.059,476.13,0.0
49750.0,STARLINK-3236,PAYLOAD,2022-02-06 20:00:01,15.29276035,0.0001332,53.2174,7.2332,56.7824,298.511,-0.024554,-0.00656555,0.0,0 STARLINK-3236,1 49750U 21115AC  22037.83334491 -.00656555  00000-0 -24554-1 0  9999,2 49750  53.2174   7.2332 0001332  56.7824 298.5110 15.29276035 11410,6856.111999999999,94.162,478.89,477.064,0.0
49750.0,STARLINK-3236,PAYLOAD,2022-02-06 22:00:00,15.29160905,0.0001453,53.2176,6.848,53.4531,40.8587,-0.024703,-0.00658089,0.0,0 STARLINK-3236,1 49750U 21115AC  22037.91667824 -.00658089  00000-0 -24703-1 0  9997,2 49750  53.2176   6.8480 0001453  53.4531  40.8587 15.29160905  3633,6856.456,94.169,479.318,477.325,0.0
49750.0,STARLINK-3236,PAYLOAD,2022-02-07 14:00:01,15.28229023,0.0001433,53.2175,3.7692,62.1895,103.0145,-0.025528,-0.00660608,0.0,0 STARLINK-3236,1 49750U 21115AC  22038.58334491 -.00660608  00000-0 -25528-1 0  9998,2 49750  53.2175   3.7692 0001433  62.1895 103.0145 15.28229023  3640,6859.243,94.227,482.091,480.125,0.0
49750.0,STARLINK-3236,PAYLOAD,2022-02-07 22:00:00,15.27761913,0.0001591,53.2176,2.2305,55.8464,143.9634,-0.025824,-0.00658899,0.0,0 STARLINK-3236,1 49750U 21115AC  22038.91667824 -.00658899  00000-0 -25824-1 0  9992,2 49750  53.2176   2.2305 0001591  55.8464 143.9634 15.27761913 11577,6860.641,94.256,483.598,481.415,0.0
49750.0,STARLINK-3236,PAYLOAD,2022-02-08 14:00:01,15.26739976,0.0001421,53.2179,359.1562,53.1334,214.2576,-0.021808,-0.00540714,0.0,0 STARLINK-3236,1 49750U 21115AC  22039.58334491 -.00540714  00000-0 -21808-1 0  9991,2 49750  53.2179 359.1562 0001421  53.1334 214.2576 15.26739976  3614,6863.703,94.319,486.543,484.592,0.0
49750.0,STARLINK-3236,PAYLOAD,2022-02-08 22:00:01,15.26269553,0.0001267,53.2178,357.6202,62.8195,237.5575,-0.021593,-0.00528627,0.0,0 STARLINK-3236,1 49750U 21115AC  22039.91668981 -.00528627  00000-0 -21593-1 0  9992,2 49750  53.2178 357.6202 0001267  62.8195 237.5575 15.26269553 11735,6865.113,94.348,487.848,486.108,0.0
49750.0,STARLINK-3236,PAYLOAD,2022-02-09 06:00:00,15.25895495,0.0001491,53.2177,356.0907,52.1842,280.4407,-0.02736,-0.00659419,0.0,0 STARLINK-3236,1 49750U 21115AC  22040.25001157 -.00659419  00000-0 -27360-1 0  9999,2 49750  53.2177 356.0907 0001491  52.1842 280.4407 15.25895495 11784,6866.235,94.371,489.124,487.076,0.0
49750.0,STARLINK-3236,PAYLOAD,2022-02-09 13:59:19,15.26688129,0.000237,53.2195,354.5325,54.9851,305.1371,-0.0087946,-0.00227249,0.0,0 STARLINK-3236,1 49750U 21115AC  22040.58286687 -.00227249  00000-0 -87946-2 0  9997,2 49750  53.2195 354.5325 0002370  54.9851 305.1371 15.26688129 10721,6863.858,94.322,487.35,484.096,0.0
49750.0,STARLINK-3236,PAYLOAD,2022-02-10 14:00:01,15.2402874,0.0001385,53.2176,349.965,56.7798,39.7555,-0.028913,-0.0065875,0.0,0 STARLINK-3236,1 49750U 21115AC  22041.58335648 -.00658750  00000-0 -28913-1 0  9993,2 49750  53.2176 349.9650 0001385  56.7798  39.7555 15.24028740 11982,6871.84,94.486,494.657,492.754,0.0
49750.0,STARLINK-3236,PAYLOAD,2022-02-10 22:00:00,15.23561975,0.0001561999999999,53.2177,348.4366,50.5213,75.5104,-0.029292,-0.00658186,0.0,0 STARLINK-3236,1 49750U 21115AC  22041.91667824 -.00658186  00000-0 -29292-1 0  9998,2 49750  53.2177 348.4366 0001562  50.5213  75.5104 15.23561975  3634,6873.244000000002,94.515,496.1830000000001,494.035,0.0
49750.0,STARLINK-3236,PAYLOAD,2022-02-11 05:19:57,15.24238282,6.28e-05,53.2191,347.0157,51.5021,308.6034,-0.0090547999999999,-0.00217573,0.0,0 STARLINK-3236,1 49750U 21115AC  22042.22219162 -.00217573  00000-0 -90548-2 0  9995,2 49750  53.2191 347.0157 0000628  51.5021 308.6034 15.24238282 12087,6871.2109999999975,94.473,493.507,492.644,0.0
49750.0,STARLINK-3236,PAYLOAD,2022-02-11 14:00:01,15.2253826,0.0001534,53.2178,345.3815,46.9679,136.5576,-0.02478,-0.00547072,0.0,0 STARLINK-3236,1 49750U 21115AC  22042.58334491 -.00547072  00000-0 -24780-1 0  9991,2 49750  53.2178 345.3815 0001534  46.9679 136.5576 15.22538260 12130,6876.325,94.579,499.244,497.135,0.0
49750.0,STARLINK-3236,PAYLOAD,2022-02-11 21:05:05,15.23351807,0.0005041,53.2184,344.0125,105.0339,255.1217,-0.0085161,-0.00199905,0.0,0 STARLINK-3236,1 49750U 21115AC  22042.87853842 -.00199905  00000-0 -85161-2 0  9998,2 49750  53.2184 344.0125 0005041 105.0339 255.1217 15.23351807 11077,6873.876,94.528,499.206,492.276,0.0
49750.0,STARLINK-3236,PAYLOAD,2022-02-12 06:00:00,15.21692879,0.0001561,53.2176,342.336,57.7275,180.9371,-0.030716,-0.00653244,0.0,0 STARLINK-3236,1 49750U 21115AC  22043.25001157 -.00653244  00000-0 -30716-1 0  9991,2 49750  53.2176 342.3360 0001561  57.7275 180.9371 15.21692879 12235,6878.871,94.631,501.81,499.662,0.0
49750.0,STARLINK-3236,PAYLOAD,2022-02-12 12:50:43,15.22602667,6.56e-05,53.2189,341.0058,328.5802,31.5157,-0.0090338,-0.00207059,0.0,0 STARLINK-3236,1 49750U 21115AC  22043.53522166 -.00207059  00000-0 -90338-2 0  9996,2 49750  53.2189 341.0058 0000656 328.5802  31.5157 15.22602667 11170,6876.130999999999,94.575,498.447,497.545,0.0
